{"type": "FeatureCollection", "features": [ {"type": "Feature", "properties": {"norad_id": 31150, "name": "FENGYUN 1C DEB", "group": "fengyun-1c-debris", "lat": 52.16882016278448, "lon": -9.68413638622032, "alt_km": 844.8273668244528, "timestamp": "2025-12-19T04:59:48.586740+00:00", "meta": {"OBJECT_NAME": "FENGYUN 1C DEB", "OBJECT_ID": "1999-025BHC", "EPOCH": "2025-12-18T14:03:37.012320", "MEAN_MOTION": 14.12736781, "ECCENTRICITY": 0.00155357, "INCLINATION": 98.6854, "RA_OF_ASC_NODE": 1.0647, "ARG_OF_PERICENTER": 143.4673, "MEAN_ANOMALY": 346.3703, "EPHEMERIS_TYPE": 0, "CLASSIFICATION_TYPE": "U", "NORAD_CAT_ID": 31150, "ELEMENT_SET_NO": 999, "REV_AT_EPOCH": 96379, "BSTAR": 0.00012515283, "MEAN_MOTION_DOT": 1.9e-06, "MEAN_MOTION_DDOT": 0}, "tle": {"line1": "1 31150U 99025BHC 25352.58584505  .00000190  00000+0  12515-3 0  9998", "line2": "2 31150  98.6854   1.0647 0015535 143.4673 346.3703 14.12736781963797"}}, "geometry": {"type": "Point", "coordinates": [-9.68413638622032, 52.16882016278448]}}, {"type": "Feature", "properties": {"norad_id": 31151, "name": "FENGYUN 1C DEB", "group": "fengyun-1c-debris", "lat": 20.077223226237383, "lon": -177.71513622802948, "alt_km": 841.6119185275256, "timestamp": "2025-12-19T04:59:48.586750+00:00", "meta": {"OBJECT_NAME": "FENGYUN 1C DEB", "OBJECT_ID": "1999-025BHD", "EPOCH": "2025-12-18T11:24:41.798592", "MEAN_MOTION": 14.25869717, "ECCENTRICITY": 0.00564144, "INCLINATION": 99.1347, "RA_OF_ASC_NODE": 358.1502, "ARG_OF_PERICENTER": 8.5947, "MEAN_ANOMALY": 351.6184, "EPHEMERIS_TYPE": 0, "CLASSIFICATION_TYPE": "U", "NORAD_CAT_ID": 31151, "ELEMENT_SET_NO": 999, "REV_AT_EPOCH": 96056, "BSTAR": 0.0019299527, "MEAN_MOTION_DOT": 4.626e-05, "MEAN_MOTION_DDOT": 0}, "tle": {"line1": "1 31151U 99025BHD 25352.47548378  .00004626  00000+0  19300-2 0  9991", "line2": "2 31151  99.1347 358.1502 0056414   8.5947 351.6184 14.25869717960567"}}, "geometry": {"type": "Point", "coordinates": [-177.71513622802948, 20.077223226237383]}}, {"type": "Feature", "properties": {"norad_id": 31152, "name": "FENGYUN 1C DEB", "group": "fengyun-1c-debris", "lat": 62.195519085055246, "lon": 175.9549916387169, "alt_km": 784.9491141155058, "timestamp": "2025-12-19T04:59:48.586760+00:00", "meta": {"OBJECT_NAME": "FENGYUN 1C DEB", "OBJECT_ID": "1999-025BHE", "EPOCH": "2025-12-18T22:02:43.920960", "MEAN_MOTION": 14.35853708, "ECCENTRICITY": 0.01298052, "INCLINATION": 98.4145, "RA_OF_ASC_NODE": 339.3706, "ARG_OF_PERICENTER": 15.0025, "MEAN_ANOMALY": 43.7972, "EPHEMERIS_TYPE": 0, "CLASSIFICATION_TYPE": "U", "NORAD_CAT_ID": 31152, "ELEMENT_SET_NO": 999, "REV_AT_EPOCH": 98137, "BSTAR": 0.00010128208, "MEAN_MOTION_DOT": 2.77e-06, "MEAN_MOTION_DDOT": 0}, "tle": {"line1": "1 31152U 99025BHE 25352.91856390  .00000277  00000+0  10128-3 0  9995", "line2": "2 31152  98.4145 339.3706 0129805  15.0025  43.7972 14.35853708981378"}}, "geometry": {"type": "Point", "coordinates": [175.9549916387169, 62.195519085055246]}}, {"type": "Feature", "properties": {"norad_id": 31155, "name": "FENGYUN 1C DEB", "group": "fengyun-1c-debris", "lat": 72.14565379129901, "lon": -88.22452926247159, "alt_km": 890.4506207605855, "timestamp": "2025-12-19T04:59:48.586770+00:00", "meta": {"OBJECT_NAME": "FENGYUN 1C DEB", "OBJECT_ID": "1999-025BHH", "EPOCH": "2025-12-14T15:22:38.883648", "MEAN_MOTION": 14.08333591, "ECCENTRICITY": 0.00887577, "INCLINATION": 99.0419, "RA_OF_ASC_NODE": 57.5723, "ARG_OF_PERICENTER": 357.4774, "MEAN_ANOMALY": 2.5936, "EPHEMERIS_TYPE": 0, "CLASSIFICATION_TYPE": "U", "NORAD_CAT_ID": 31155, "ELEMENT_SET_NO": 999, "REV_AT_EPOCH": 95614, "BSTAR": 0.0012433812, "MEAN_MOTION_DOT": 2.16e-05, "MEAN_MOTION_DDOT": 0}, "tle": {"line1": "1 31155U 99025BHH 25348.64072782  .00002160  00000+0  12434-2 0  9992", "line2": "2 31155  99.0419  57.5723 0088757 357.4774   2.5936 14.08333591956147"}}, "geometry": {"type": "Point", "coordinates": [-88.22452926247159, 72.14565379129901]}}, {"type": "Feature", "properties": {"norad_id": 31157, "name": "FENGYUN 1C DEB", "group": "fengyun-1c-debris", "lat": 16.172376189326503, "lon": -25.998806848906963, "alt_km": 790.6604166609377, "timestamp": "2025-12-19T04:59:48.586781+00:00", "meta": {"OBJECT_NAME": "FENGYUN 1C DEB", "OBJECT_ID": "1999-025BHK", "EPOCH": "2025-12-15T04:42:10.430784", "MEAN_MOTION": 14.22565872, "ECCENTRICITY": 0.01000722, "INCLINATION": 98.4799, "RA_OF_ASC_NODE": 332.6191, "ARG_OF_PERICENTER": 319.3006, "MEAN_ANOMALY": 40.0724, "EPHEMERIS_TYPE": 0, "CLASSIFICATION_TYPE": "U", "NORAD_CAT_ID": 31157, "ELEMENT_SET_NO": 999, "REV_AT_EPOCH": 97018, "BSTAR": 0.00031840475, "MEAN_MOTION_DOT": 7.06e-06, "MEAN_MOTION_DDOT": 0}, "tle": {"line1": "1 31157U 99025BHK 25349.19595406  .00000706  00000+0  31840-3 0  9995", "line2": "2 31157  98.4799 332.6191 0100072 319.3006  40.0724 14.22565872970186"}}, "geometry": {"type": "Point", "coordinates": [-25.998806848906963, 16.172376189326503]}}, {"type": "Feature", "properties": {"norad_id": 31158, "name": "FENGYUN 1C DEB", "group": "fengyun-1c-debris", "lat": 72.72756123787742, "lon": 42.14786950483252, "alt_km": 756.6190078798209, "timestamp": "2025-12-19T04:59:48.586791+00:00", "meta": {"OBJECT_NAME": "FENGYUN 1C DEB", "OBJECT_ID": "1999-025BHL", "EPOCH": "2025-12-18T11:53:47.343840", "MEAN_MOTION": 14.33281041, "ECCENTRICITY": 0.0046976, "INCLINATION": 98.7798, "RA_OF_ASC_NODE": 71.2296, "ARG_OF_PERICENTER": 17.5806, "MEAN_ANOMALY": 342.6991, "EPHEMERIS_TYPE": 0, "CLASSIFICATION_TYPE": "U", "NORAD_CAT_ID": 31158, "ELEMENT_SET_NO": 999, "REV_AT_EPOCH": 64562, "BSTAR": 0.0014168844, "MEAN_MOTION_DOT": 3.904e-05, "MEAN_MOTION_DDOT": 0}, "tle": {"line1": "1 31158U 99025BHL 25352.49568685  .00003904  00000+0  14169-2 0  9999", "line2": "2 31158  98.7798  71.2296 0046976  17.5806 342.6991 14.33281041645628"}}, "geometry": {"type": "Point", "coordinates": [42.14786950483252, 72.72756123787742]}}, {"type": "Feature", "properties": {"norad_id": 31159, "name": "FENGYUN 1C DEB", "group": "fengyun-1c-debris", "lat": 29.864347152069303, "lon": 137.7408807242829, "alt_km": 516.4702671906552, "timestamp": "2025-12-19T04:59:48.586801+00:00", "meta": {"OBJECT_NAME": "FENGYUN 1C DEB", "OBJECT_ID": "1999-025BHM", "EPOCH": "2025-12-17T14:54:06.147936", "MEAN_MOTION": 15.39005719, "ECCENTRICITY": 0.01094568, "INCLINATION": 97.7985, "RA_OF_ASC_NODE": 311.5382, "ARG_OF_PERICENTER": 356.4091, "MEAN_ANOMALY": 3.6355, "EPHEMERIS_TYPE": 0, "CLASSIFICATION_TYPE": "U", "NORAD_CAT_ID": 31159, "ELEMENT_SET_NO": 999, "REV_AT_EPOCH": 99628, "BSTAR": 0.0013789415, "MEAN_MOTION_DOT": 0.00065992, "MEAN_MOTION_DDOT": 0}, "tle": {"line1": "1 31159U 99025BHM 25351.62090449  .00065992  00000+0  13789-2 0  9994", "line2": "2 31159  97.7985 311.5382 0109456 356.4091   3.6355 15.39005719996288"}}, "geometry": {"type": "Point", "coordinates": [137.7408807242829, 29.864347152069303]}}, {"type": "Feature", "properties": {"norad_id": 31160, "name": "FENGYUN 1C DEB", "group": "fengyun-1c-debris", "lat": 63.71386888507234, "lon": -111.66038713782083, "alt_km": 911.5824365909912, "timestamp": "2025-12-19T04:59:48.586811+00:00", "meta": {"OBJECT_NAME": "FENGYUN 1C DEB", "OBJECT_ID": "1999-025BHN", "EPOCH": "2025-12-18T09:34:20.472384", "MEAN_MOTION": 13.99593944, "ECCENTRICITY": 0.00572012, "INCLINATION": 99.0848, "RA_OF_ASC_NODE": 48.6355, "ARG_OF_PERICENTER": 240.1954, "MEAN_ANOMALY": 119.3515, "EPHEMERIS_TYPE": 0, "CLASSIFICATION_TYPE": "U", "NORAD_CAT_ID": 31160, "ELEMENT_SET_NO": 999, "REV_AT_EPOCH": 69678, "BSTAR": -1.0899013e-05, "MEAN_MOTION_DOT": -6.1e-07, "MEAN_MOTION_DDOT": 0}, "tle": {"line1": "1 31160U 99025BHN 25352.39884806 -.00000061  00000+0 -10899-4 0  9998", "line2": "2 31160  99.0848  48.6355 0057201 240.1954 119.3515 13.99593944696789"}}, "geometry": {"type": "Point", "coordinates": [-111.66038713782083, 63.71386888507234]}}, {"type": "Feature", "properties": {"norad_id": 31161, "name": "FENGYUN 1C DEB", "group": "fengyun-1c-debris", "lat": 24.57501010018407, "lon": 10.567604228507776, "alt_km": 831.421636873828, "timestamp": "2025-12-19T04:59:48.586822+00:00", "meta": {"OBJECT_NAME": "FENGYUN 1C DEB", "OBJECT_ID": "1999-025BHP", "EPOCH": "2025-12-17T20:30:18.101088", "MEAN_MOTION": 14.09256242, "ECCENTRICITY": 0.00681198, "INCLINATION": 98.7482, "RA_OF_ASC_NODE": 13.2908, "ARG_OF_PERICENTER": 335.5969, "MEAN_ANOMALY": 24.1981, "EPHEMERIS_TYPE": 0, "CLASSIFICATION_TYPE": "U", "NORAD_CAT_ID": 31161, "ELEMENT_SET_NO": 999, "REV_AT_EPOCH": 96174, "BSTAR": 0.00033207188, "MEAN_MOTION_DOT": 5.47e-06, "MEAN_MOTION_DDOT": 0}, "tle": {"line1": "1 31161U 99025BHP 25351.85437617  .00000547  00000+0  33207-3 0  9997", "line2": "2 31161  98.7482  13.2908 0068119 335.5969  24.1981 14.09256242961747"}}, "geometry": {"type": "Point", "coordinates": [10.567604228507776, 24.57501010018407]}}, {"type": "Feature", "properties": {"norad_id": 31165, "name": "FENGYUN 1C DEB", "group": "fengyun-1c-debris", "lat": -31.025287585293377, "lon": 58.98338495439669, "alt_km": 682.9515965180317, "timestamp": "2025-12-19T04:59:48.586832+00:00", "meta": {"OBJECT_NAME": "FENGYUN 1C DEB", "OBJECT_ID": "1999-025BHT", "EPOCH": "2025-12-18T09:50:12.254784", "MEAN_MOTION": 14.7113849, "ECCENTRICITY": 0.00695083, "INCLINATION": 98.8857, "RA_OF_ASC_NODE": 52.7138, "ARG_OF_PERICENTER": 217.2212, "MEAN_ANOMALY": 205.1074, "EPHEMERIS_TYPE": 0, "CLASSIFICATION_TYPE": "U", "NORAD_CAT_ID": 31165, "ELEMENT_SET_NO": 999, "REV_AT_EPOCH": 98838, "BSTAR": 0.0011493301, "MEAN_MOTION_DOT": 7.288e-05, "MEAN_MOTION_DDOT": 0}, "tle": {"line1": "1 31165U 99025BHT 25352.40986406  .00007288  00000+0  11493-2 0  9999", "line2": "2 31165  98.8857  52.7138 0069508 217.2212 205.1074 14.71138490988387"}}, "geometry": {"type": "Point", "coordinates": [58.98338495439669, -31.025287585293377]}}]}